start=new Date('2022-08-23T00:00:00.000Z').valueOf();
sats=[{"FILE":"3544179","CENTER_NAME":"EARTH","PERIAPSIS":"538.579","MEAN_MOTION":"15.08862750","OBJECT_TYPE":"PAYLOAD","GP_ID":"210779660","RA_OF_ASC_NODE":"311.5827","MEAN_MOTION_DDOT":"0.0000000000000","MEAN_MOTION_DOT":"-0.00023900","ELEMENT_SET_NO":"999","APOAPSIS":"540.773","OBJECT_NAME":"STARLINK-3978","PERIOD":"95.436","ECCENTRICITY":"0.00015860","RCS_SIZE":"LARGE","COUNTRY_CODE":"US","REV_AT_EPOCH":"130","EPOCH":"2022-08-22T22:00:00.999936","INCLINATION":"53.2123","SITE":"AFETR","NORAD_CAT_ID":"52635","SEMIMAJOR_AXIS":"6917.811","LAUNCH_DATE":"2022-05-14","TLE_LINE1":"1 52635U 22052AP  22234.91667824 -.00023900  00000-0 -14876-2 0  9992","ARG_OF_PERICENTER":"58.9061","EPHEMERIS_TYPE":"0","REF_FRAME":"TEME","OBJECT_ID":"2022-052AP","TIME_SYSTEM":"UTC","DECAY_DATE":null,"MEAN_ANOMALY":"113.1314","BSTAR":"-0.00148760000000","MEAN_ELEMENT_THEORY":"SGP4","TLE_LINE2":"2 52635  53.2123 311.5827 0001586  58.9061 113.1314 15.08862750  1305","CLASSIFICATION_TYPE":"U"},{"EPOCH":"2022-08-22T22:00:00.999936","INCLINATION":"53.2173","REV_AT_EPOCH":"130","COUNTRY_CODE":"US","PERIOD":"95.437","RCS_SIZE":"LARGE","ECCENTRICITY":"0.00012610","OBJECT_NAME":"STARLINK-3967","ELEMENT_SET_NO":"999","APOAPSIS":"540.590","MEAN_MOTION_DOT":"-0.00029598","MEAN_MOTION_DDOT":"0.0000000000000","RA_OF_ASC_NODE":"321.5676","MEAN_MOTION":"15.08849117","GP_ID":"210779933","OBJECT_TYPE":"PAYLOAD","FILE":"3544179","CENTER_NAME":"EARTH","PERIAPSIS":"538.845","CLASSIFICATION_TYPE":"U","TLE_LINE2":"2 52636  53.2173 321.5676 0001261  62.9743 334.0940 15.08849117  1307","MEAN_ELEMENT_THEORY":"SGP4","TIME_SYSTEM":"UTC","BSTAR":"-0.00184880000000","DECAY_DATE":null,"MEAN_ANOMALY":"334.0940","EPHEMERIS_TYPE":"0","OBJECT_ID":"2022-052AQ","REF_FRAME":"TEME","TLE_LINE1":"1 52636U 22052AQ  22234.91667824 -.00029598  00000-0 -18488-2 0  9995","SEMIMAJOR_AXIS":"6917.853","LAUNCH_DATE":"2022-05-14","ARG_OF_PERICENTER":"62.9743","SITE":"AFETR","NORAD_CAT_ID":"52636"},{"MEAN_MOTION_DDOT":"0.0000000000000","RA_OF_ASC_NODE":"311.5822","ELEMENT_SET_NO":"999","APOAPSIS":"540.900","MEAN_MOTION_DOT":"-0.00029407","FILE":"3544179","CENTER_NAME":"EARTH","PERIAPSIS":"538.587","MEAN_MOTION":"15.08840592","GP_ID":"210780216","OBJECT_TYPE":"PAYLOAD","REV_AT_EPOCH":"130","COUNTRY_CODE":"US","EPOCH":"2022-08-22T22:00:00.999936","INCLINATION":"53.2128","OBJECT_NAME":"STARLINK-3961","PERIOD":"95.438","RCS_SIZE":"LARGE","ECCENTRICITY":"0.00016720","EPHEMERIS_TYPE":"0","OBJECT_ID":"2022-052AR","REF_FRAME":"TEME","TIME_SYSTEM":"UTC","DECAY_DATE":null,"MEAN_ANOMALY":"136.1131","BSTAR":"-0.00183710000000","NORAD_CAT_ID":"52637","SITE":"AFETR","TLE_LINE1":"1 52637U 22052AR  22234.91667824 -.00029407  00000-0 -18371-2 0  9996","LAUNCH_DATE":"2022-05-14","SEMIMAJOR_AXIS":"6917.879","ARG_OF_PERICENTER":"55.8913","CLASSIFICATION_TYPE":"U","TLE_LINE2":"2 52637  53.2128 311.5822 0001672  55.8913 136.1131 15.08840592  1307","MEAN_ELEMENT_THEORY":"SGP4"},{"RA_OF_ASC_NODE":"321.5677","MEAN_MOTION_DDOT":"0.0000000000000","MEAN_MOTION_DOT":"-0.00029030","APOAPSIS":"540.585","ELEMENT_SET_NO":"999","FILE":"3544179","CENTER_NAME":"EARTH","PERIAPSIS":"538.835","MEAN_MOTION":"15.08851608","OBJECT_TYPE":"PAYLOAD","GP_ID":"210779792","COUNTRY_CODE":"US","REV_AT_EPOCH":"130","EPOCH":"2022-08-22T22:00:00.999936","INCLINATION":"53.2167","OBJECT_NAME":"STARLINK-3941","PERIOD":"95.437","ECCENTRICITY":"0.00012650","RCS_SIZE":"LARGE","EPHEMERIS_TYPE":"0","REF_FRAME":"TEME","OBJECT_ID":"2022-052AS","TIME_SYSTEM":"UTC","DECAY_DATE":null,"BSTAR":"-0.00181270000000","MEAN_ANOMALY":"346.2326","SITE":"AFETR","NORAD_CAT_ID":"52638","SEMIMAJOR_AXIS":"6917.845","LAUNCH_DATE":"2022-05-14","TLE_LINE1":"1 52638U 22052AS  22234.91667824 -.00029030  00000-0 -18127-2 0  9998","ARG_OF_PERICENTER":"70.7836","TLE_LINE2":"2 52638  53.2167 321.5677 0001265  70.7836 346.2326 15.08851608  1308","CLASSIFICATION_TYPE":"U","MEAN_ELEMENT_THEORY":"SGP4"},{"OBJECT_ID":"2022-052AT","REF_FRAME":"TEME","EPHEMERIS_TYPE":"0","MEAN_ANOMALY":"210.5800","DECAY_DATE":null,"BSTAR":"-0.00168150000000","TIME_SYSTEM":"UTC","SITE":"AFETR","NORAD_CAT_ID":"52639","ARG_OF_PERICENTER":"41.4358","TLE_LINE1":"1 52639U 22052AT  22234.91667824 -.00026964  00000-0 -16815-2 0  9994","LAUNCH_DATE":"2022-05-14","SEMIMAJOR_AXIS":"6917.822","TLE_LINE2":"2 52639  53.2130 311.5828 0001686  41.4358 210.5800 15.08859074  1302","CLASSIFICATION_TYPE":"U","MEAN_ELEMENT_THEORY":"SGP4","MEAN_MOTION_DDOT":"0.0000000000000","RA_OF_ASC_NODE":"311.5828","ELEMENT_SET_NO":"999","APOAPSIS":"540.853","MEAN_MOTION_DOT":"-0.00026964","CENTER_NAME":"EARTH","PERIAPSIS":"538.521","FILE":"3544179","GP_ID":"210780074","OBJECT_TYPE":"PAYLOAD","MEAN_MOTION":"15.08859074","REV_AT_EPOCH":"130","COUNTRY_CODE":"US","INCLINATION":"53.2130","EPOCH":"2022-08-22T22:00:00.999936","OBJECT_NAME":"STARLINK-3968","RCS_SIZE":"LARGE","ECCENTRICITY":"0.00016860","PERIOD":"95.436"},{"FILE":"3544179","CENTER_NAME":"EARTH","PERIAPSIS":"538.611","MEAN_MOTION":"15.08836252","GP_ID":"210779519","OBJECT_TYPE":"PAYLOAD","MEAN_MOTION_DDOT":"0.0000000000000","RA_OF_ASC_NODE":"311.5835","APOAPSIS":"540.903","ELEMENT_SET_NO":"999","MEAN_MOTION_DOT":"-0.00023273","OBJECT_NAME":"STARLINK-3977","PERIOD":"95.438","RCS_SIZE":"LARGE","ECCENTRICITY":"0.00016570","REV_AT_EPOCH":"130","COUNTRY_CODE":"US","EPOCH":"2022-08-22T22:00:00.999936","INCLINATION":"53.2136","SITE":"AFETR","NORAD_CAT_ID":"52640","TLE_LINE1":"1 52640U 22052AU  22234.91667824 -.00023273  00000-0 -14490-2 0  9993","SEMIMAJOR_AXIS":"6917.892","LAUNCH_DATE":"2022-05-14","ARG_OF_PERICENTER":"53.8518","EPHEMERIS_TYPE":"0","OBJECT_ID":"2022-052AU","REF_FRAME":"TEME","TIME_SYSTEM":"UTC","DECAY_DATE":null,"MEAN_ANOMALY":"113.0217","BSTAR":"-0.00144900000000","MEAN_ELEMENT_THEORY":"SGP4","TLE_LINE2":"2 52640  53.2136 311.5835 0001657  53.8518 113.0217 15.08836252  1303","CLASSIFICATION_TYPE":"U"},{"RA_OF_ASC_NODE":"311.5820","MEAN_MOTION_DDOT":"0.0000000000000","MEAN_MOTION_DOT":"-0.00026812","APOAPSIS":"541.061","ELEMENT_SET_NO":"999","FILE":"3544179","PERIAPSIS":"538.583","CENTER_NAME":"EARTH","MEAN_MOTION":"15.08815013","OBJECT_TYPE":"PAYLOAD","GP_ID":"210780366","COUNTRY_CODE":"US","REV_AT_EPOCH":"130","EPOCH":"2022-08-22T22:00:00.999936","INCLINATION":"53.2140","OBJECT_NAME":"STARLINK-3991","PERIOD":"95.439","ECCENTRICITY":"0.00017910","RCS_SIZE":"LARGE","EPHEMERIS_TYPE":"0","REF_FRAME":"TEME","OBJECT_ID":"2022-052AV","TIME_SYSTEM":"UTC","DECAY_DATE":null,"MEAN_ANOMALY":"227.6904","BSTAR":"-0.00167390000000","SITE":"AFETR","NORAD_CAT_ID":"52641","SEMIMAJOR_AXIS":"6917.957","LAUNCH_DATE":"2022-05-14","TLE_LINE1":"1 52641U 22052AV  22234.91667824 -.00026812  00000-0 -16739-2 0  9994","ARG_OF_PERICENTER":"44.3944","CLASSIFICATION_TYPE":"U","TLE_LINE2":"2 52641  53.2140 311.5820 0001791  44.3944 227.6904 15.08815013  1307","MEAN_ELEMENT_THEORY":"SGP4"},{"MEAN_MOTION":"15.08839204","OBJECT_TYPE":"PAYLOAD","GP_ID":"210779377","FILE":"3544179","CENTER_NAME":"EARTH","PERIAPSIS":"538.390","MEAN_MOTION_DOT":"-0.00027425","ELEMENT_SET_NO":"999","APOAPSIS":"541.106","RA_OF_ASC_NODE":"311.5824","MEAN_MOTION_DDOT":"0.0000000000000","PERIOD":"95.438","ECCENTRICITY":"0.00019630","RCS_SIZE":"LARGE","OBJECT_NAME":"STARLINK-3971","EPOCH":"2022-08-22T22:00:00.999936","INCLINATION":"53.2132","COUNTRY_CODE":"US","REV_AT_EPOCH":"130","SEMIMAJOR_AXIS":"6917.883","LAUNCH_DATE":"2022-05-14","TLE_LINE1":"1 52642U 22052AW  22234.91667824 -.00027425  00000-0 -17116-2 0  9996","ARG_OF_PERICENTER":"46.4388","SITE":"AFETR","NORAD_CAT_ID":"52642","TIME_SYSTEM":"UTC","BSTAR":"-0.00171160000000","DECAY_DATE":null,"MEAN_ANOMALY":"165.6381","EPHEMERIS_TYPE":"0","REF_FRAME":"TEME","OBJECT_ID":"2022-052AW","MEAN_ELEMENT_THEORY":"SGP4","TLE_LINE2":"2 52642  53.2132 311.5824 0001963  46.4388 165.6381 15.08839204  1307","CLASSIFICATION_TYPE":"U"},{"COUNTRY_CODE":"US","REV_AT_EPOCH":"130","EPOCH":"2022-08-22T22:00:00.999936","INCLINATION":"53.2165","OBJECT_NAME":"STARLINK-3963","PERIOD":"95.437","ECCENTRICITY":"0.00017450","RCS_SIZE":"LARGE","RA_OF_ASC_NODE":"311.5666","MEAN_MOTION_DDOT":"0.0000000000000","MEAN_MOTION_DOT":"-0.00043188","ELEMENT_SET_NO":"999","APOAPSIS":"540.949","FILE":"3544179","CENTER_NAME":"EARTH","PERIAPSIS":"538.535","MEAN_MOTION":"15.08841159","OBJECT_TYPE":"PAYLOAD","GP_ID":"210779661","CLASSIFICATION_TYPE":"U","TLE_LINE2":"2 52643  53.2165 311.5666 0001745  44.1941 287.9122 15.08841159  1309","MEAN_ELEMENT_THEORY":"SGP4","EPHEMERIS_TYPE":"0","REF_FRAME":"TEME","OBJECT_ID":"2022-052AX","TIME_SYSTEM":"UTC","DECAY_DATE":null,"BSTAR":"-0.00271170000000","MEAN_ANOMALY":"287.9122","SITE":"AFETR","NORAD_CAT_ID":"52643","LAUNCH_DATE":"2022-05-14","SEMIMAJOR_AXIS":"6917.877","TLE_LINE1":"1 52643U 22052AX  22234.91667824 -.00043188  00000-0 -27117-2 0  9993","ARG_OF_PERICENTER":"44.1941"},{"INCLINATION":"53.2126","EPOCH":"2022-08-22T22:00:00.999936","COUNTRY_CODE":"US","REV_AT_EPOCH":"130","ECCENTRICITY":"0.00018250","RCS_SIZE":"LARGE","PERIOD":"95.438","OBJECT_NAME":"STARLINK-3985","MEAN_MOTION_DOT":"-0.00027685","ELEMENT_SET_NO":"999","APOAPSIS":"541.044","MEAN_MOTION_DDOT":"0.0000000000000","RA_OF_ASC_NODE":"311.5833","OBJECT_TYPE":"PAYLOAD","GP_ID":"210779934","MEAN_MOTION":"15.08828113","PERIAPSIS":"538.519","CENTER_NAME":"EARTH","FILE":"3544179","CLASSIFICATION_TYPE":"U","TLE_LINE2":"2 52644  53.2126 311.5833 0001825  45.5096 186.5616 15.08828113  1305","MEAN_ELEMENT_THEORY":"SGP4","BSTAR":"-0.00172860000000","DECAY_DATE":null,"MEAN_ANOMALY":"186.5616","TIME_SYSTEM":"UTC","REF_FRAME":"TEME","OBJECT_ID":"2022-052AY","EPHEMERIS_TYPE":"0","ARG_OF_PERICENTER":"45.5096","LAUNCH_DATE":"2022-05-14","SEMIMAJOR_AXIS":"6917.917","TLE_LINE1":"1 52644U 22052AY  22234.91667824 -.00027685  00000-0 -17286-2 0  9994","SITE":"AFETR","NORAD_CAT_ID":"52644"}];
